NORAD_CAT_ID,OBJECT_NAME,OBJECT_TYPE,EPOCH,MEAN_MOTION,ECCENTRICITY,INCLINATION,RA_OF_ASC_NODE,ARG_OF_PERICENTER,MEAN_ANOMALY,BSTAR,MEAN_MOTION_DOT,MEAN_MOTION_DDOT,TLE_LINE0,TLE_LINE1,TLE_LINE2,SEMIMAJOR_AXIS,PERIOD,APOGEE,PERIGEE,DECAYED
54205.0,STARLINK-5249,PAYLOAD,2024-05-27 22:51:27,15.08844491,0.0001668,53.2196,35.0304,85.5391,274.5792,0.00010414,1.37e-05,0.0,0 STARLINK-5249,1 54205U 22141BA  24148.95240366  .00001370  00000-0  10414-3 0  9994,2 54205  53.2196  35.0304 0001668  85.5391 274.5792 15.08844491 87769,6917.867,95.437,540.886,538.578,0.0
54205.0,STARLINK-5249,PAYLOAD,2024-05-28 09:59:09,15.08847234,0.0001486,53.218,32.9511,115.2217,244.8929,7.5154e-05,9.09e-06,0.0,0 STARLINK-5249,1 54205U 22141BA  24149.41607825  .00000909  00000-0  75154-4 0  9993,2 54205  53.2180  32.9511 0001486 115.2217 244.8929 15.08847234 87832,6917.858,95.437,540.751,538.695,0.0
54205.0,STARLINK-5249,PAYLOAD,2024-05-28 19:31:28,15.08841487,0.0001646,53.2173,31.1657,121.6568,238.4585,-3.2144e-05,-8e-06,0.0,0 STARLINK-5249,1 54205U 22141BA  24149.81352174 -.00000800  00000-0 -32144-4 0  9995,2 54205  53.2173  31.1657 0001646 121.6568 238.4585 15.08841487 88128,6917.876,95.437,540.88,538.602,0.0
54205.0,STARLINK-5249,PAYLOAD,2024-05-28 21:06:51,15.08844749,0.0001502,53.218,30.8683,113.9318,246.1832,-2.6162e-05,-7.04e-06,0.0,0 STARLINK-5249,1 54205U 22141BA  24149.87976258 -.00000704  00000-0 -26162-4 0  9992,2 54205  53.2180  30.8683 0001502 113.9318 246.1832 15.08844749 87909,6917.866,95.437,540.77,538.692,0.0
54205.0,STARLINK-5249,PAYLOAD,2024-05-29 01:53:00,15.08846226,0.0001528,53.2186,29.9788,116.6592,243.4557,-9.9086e-05,-1.865e-05,0.0,0 STARLINK-5249,1 54205U 22141BA  24150.07848273 -.00001865  00000-0 -99086-4 0  9995,2 54205  53.2186  29.9788 0001528 116.6592 243.4557 15.08846226 87931,6917.861,95.437,540.783,538.669,0.0
54205.0,STARLINK-5249,PAYLOAD,2024-05-29 20:57:38,15.08839883,0.0001434,53.2182,26.4103,103.5446,256.5706,5.9994e-05,6.67e-06,0.0,0 STARLINK-5249,1 54205U 22141BA  24150.87336437  .00000667  00000-0  59994-4 0  9998,2 54205  53.2182  26.4103 0001434 103.5446 256.5706 15.08839883 88280,6917.881,95.438,540.738,538.754,0.0
54205.0,STARLINK-5249,PAYLOAD,2024-05-29 22:33:01,15.08840205,0.0001443,53.2184,26.1131,102.0612,258.0542,5.519e-05,5.91e-06,0.0,0 STARLINK-5249,1 54205U 22141BA  24150.93960408  .00000591  00000-0  55190-4 0  9996,2 54205  53.2184  26.1131 0001443 102.0612 258.0542 15.08840205 88060,6917.88,95.438,540.743,538.747,0.0
54205.0,STARLINK-5249,PAYLOAD,2024-05-30 20:48:25,15.08838588,0.0001412,53.2185,21.9516,95.975,264.1403,8.8526e-05,1.121e-05,0.0,0 STARLINK-5249,1 54205U 22141BA  24151.86696667  .00001121  00000-0  88526-4 0  9991,2 54205  53.2185  21.9516 0001412  95.9750 264.1403 15.08838588 88201,6917.885,95.438,540.727,538.773,0.0
54205.0,STARLINK-5249,PAYLOAD,2024-05-31 14:17:40,15.08841113,0.000152,53.2188,18.6829,105.2574,254.8586,0.00010539,1.39e-05,0.0,0 STARLINK-5249,1 54205U 22141BA  24152.59560537  .00001390  00000-0  10539-3 0  9994,2 54205  53.2188  18.6829 0001520 105.2574 254.8586 15.08841113 88311,6917.877,95.437,540.794,538.69,0.0
54205.0,STARLINK-5249,PAYLOAD,2024-05-31 20:39:12,15.0884645,0.0001328,53.2183,17.497,95.9391,264.1752,9.6713e-05,1.252e-05,0.0,0 STARLINK-5249,1 54205U 22141BA  24152.86056192  .00001252  00000-0  96713-4 0  9997,2 54205  53.2183  17.4970 0001328  95.9391 264.1752 15.08846450 88585,6917.861,95.437,540.644,538.807,0.0
54205.0,STARLINK-5249,PAYLOAD,2024-06-01 07:46:54,15.08848055,0.0001282,53.2182,15.4148,89.3018,270.8121,9.1333e-05,1.166e-05,0.0,0 STARLINK-5249,1 54205U 22141BA  24153.32423965  .00001166  00000-0  91333-4 0  9992,2 54205  53.2182  15.4148 0001282  89.3018 270.8121 15.08848055 88421,6917.856,95.437,540.608,538.834,0.0
54205.0,STARLINK-5249,PAYLOAD,2024-06-01 20:30:00,15.08832573,0.0001351,53.2178,13.0357,86.9587,273.1559,-1.7851e-05,-5.72e-06,0.0,0 STARLINK-5249,1 54205U 22141BA  24153.85417527 -.00000572  00000-0 -17851-4 0  9992,2 54205  53.2178  13.0357 0001351  86.9587 273.1559 15.08832573 88736,6917.903,95.438,540.703,538.833,0.0
54205.0,STARLINK-5249,PAYLOAD,2024-06-02 07:37:42,15.08838023,0.0001443,53.2186,10.9539,86.7954,273.3203,3.3794e-05,2.5e-06,0.0,0 STARLINK-5249,1 54205U 22141BA  24154.31785173  .00000250  00000-0  33794-4 0  9994,2 54205  53.2186  10.9539 0001443  86.7954 273.3203 15.08838023 88803,6917.886,95.438,540.75,538.753,0.0
54205.0,STARLINK-5249,PAYLOAD,2024-06-02 20:20:46,15.08845972,0.0001372,53.2185,8.5756,92.5489,267.566,8.5509e-05,1.073e-05,0.0,0 STARLINK-5249,1 54205U 22141BA  24154.84776531  .00001073  00000-0  85509-4 0  9995,2 54205  53.2185   8.5756 0001372  92.5489 267.5660 15.08845972 88886,6917.862,95.437,540.676,538.778,0.0
54205.0,STARLINK-5249,PAYLOAD,2024-06-03 20:11:35,15.08812434,0.000116,53.2163,4.1128,94.7307,265.3818,0.00047492,7.273e-05,0.0,0 STARLINK-5249,1 54205U 22141BA  24155.84138622  .00007273  00000-0  47492-3 0  9995,2 54205  53.2163   4.1128 0001160  94.7307 265.3818 15.08812434 89031,6917.965,95.439,540.632,539.027,0.0
54205.0,STARLINK-5249,PAYLOAD,2024-06-04 07:19:16,15.08836944,5.69e-05,53.2182,2.0286,152.6967,207.4055,1.0399e-05,-1.22e-06,0.0,0 STARLINK-5249,1 54205U 22141BA  24156.30505680 -.00000122  00000-0  10399-4 0  9993,2 54205  53.2182   2.0286 0000569 152.6967 207.4055 15.08836944 89102,6917.89,95.438,540.148,539.361,0.0
54205.0,STARLINK-5249,PAYLOAD,2024-06-04 20:02:23,15.0881957,9.94e-05,53.2155,359.6509,89.4755,270.6351,-7.7404e-05,-1.519e-05,0.0,0 STARLINK-5249,1 54205U 22141BA  24156.83499820 -.00001519  00000-0 -77404-4 0  9991,2 54205  53.2155 359.6509 0000994  89.4755 270.6351 15.08819570 88954,6917.943,95.439,540.495,539.12,0.0
54205.0,STARLINK-5249,PAYLOAD,2024-06-04 23:13:08,15.08882593,0.0001523,53.2097,359.0548,110.5565,249.5591,-0.00083215,-0.00013523,0.0,0 STARLINK-5249,1 54205U 22141BA  24156.96745879 -.00013523  00000-0 -83215-3 0  9997,2 54205  53.2097 359.0548 0001523 110.5565 249.5591 15.08882593 89205,6917.75,95.435,540.669,538.562,0.0
54205.0,STARLINK-5249,PAYLOAD,2024-06-05 13:31:36,15.08832383,0.000169,53.2182,356.3794,96.7053,263.4132,0.00034106,5.143e-05,0.0,0 STARLINK-5249,1 54205U 22141BA  24157.56361902  .00005143  00000-0  34106-3 0  9997,2 54205  53.2182 356.3794 0001690  96.7053 263.4132 15.08832383 89067,6917.904,95.438,540.938,538.6,0.0
54205.0,STARLINK-5249,PAYLOAD,2024-06-05 19:53:08,15.08848747,0.0001695,53.2179,355.1895,97.421,262.6975,0.00043796,6.691e-05,0.0,0 STARLINK-5249,1 54205U 22141BA  24157.82856959  .00006691  00000-0  43796-3 0  9991,2 54205  53.2179 355.1895 0001695  97.4210 262.6975 15.08848747 89337,6917.854,95.437,540.891,538.546,0.0
54205.0,STARLINK-5249,PAYLOAD,2024-06-05 23:03:55,15.08852109,0.000122,53.2119,354.5952,86.6041,273.509,0.00057869,8.937e-05,0.0,0 STARLINK-5249,1 54205U 22141BA  24157.96105947  .00008937  00000-0  57869-3 0  9991,2 54205  53.2119 354.5952 0001220  86.6041 273.5090 15.08852109 89352,6917.843,95.437,540.552,538.864,0.0
54205.0,STARLINK-5249,PAYLOAD,2024-06-06 22:54:41,15.08857084,0.0001343,53.2184,350.1367,97.0659,263.0486,8.5387e-05,1.072e-05,0.0,0 STARLINK-5249,1 54205U 22141BA  24158.95465078  .00001072  00000-0  85387-4 0  9995,2 54205  53.2184 350.1367 0001343  97.0659 263.0486 15.08857084 89500,6917.828,95.436,540.622,538.764,0.0
54205.0,STARLINK-5249,PAYLOAD,2024-06-07 13:13:10,15.08844194,0.0001817,53.2205,347.4617,102.9926,257.1269,-0.00019966,-3.465e-05,0.0,0 STARLINK-5249,1 54205U 22141BA  24159.55081406 -.00003465  00000-0 -19966-3 0  9990,2 54205  53.2205 347.4617 0001817 102.9926 257.1269 15.08844194 89590,6917.868,95.437,540.99,538.476,0.0
54205.0,STARLINK-5249,PAYLOAD,2024-06-07 19:34:42,15.08852435,0.0001935,53.2204,346.2722,93.7897,266.3317,-6.8339e-05,-1.376e-05,0.0,0 STARLINK-5249,1 54205U 22141BA  24159.81577410 -.00001376  00000-0 -68339-4 0  9992,2 54205  53.2204 346.2722 0001935  93.7897 266.3317 15.08852435 89401,6917.842,95.437,541.046,538.369,0.0
54205.0,STARLINK-5249,PAYLOAD,2024-06-08 05:07:01,15.08848311,0.0001424,53.2198,344.4845,82.1794,277.9359,3.0151e-05,1.92e-06,0.0,0 STARLINK-5249,1 54205U 22141BA  24160.21321207  .00000192  00000-0  30151-4 0  9993,2 54205  53.2198 344.4845 0001424  82.1794 277.9359 15.08848311 89468,6917.855,95.437,540.705,538.735,0.0
54205.0,STARLINK-5249,PAYLOAD,2024-06-08 19:25:29,15.08844197,0.0001356,53.2206,341.8094,78.6595,281.4549,7.9073e-05,9.71e-06,0.0,0 STARLINK-5249,1 54205U 22141BA  24160.80937119  .00000971  00000-0  79073-4 0  9994,2 54205  53.2206 341.8094 0001356  78.6595 281.4549 15.08844197 89782,6917.868,95.437,540.671,538.794,0.0
54205.0,STARLINK-5249,PAYLOAD,2024-06-08 21:00:52,15.0884251,0.0001406,53.2194,341.5128,85.203,274.9123,8.9408e-05,1.135e-05,0.0,0 STARLINK-5249,1 54205U 22141BA  24160.87561214  .00001135  00000-0  89408-4 0  9996,2 54205  53.2194 341.5128 0001406  85.2030 274.9123 15.08842510 89565,6917.873,95.437,540.71,538.765,0.0
54205.0,STARLINK-5249,PAYLOAD,2024-06-09 04:57:49,15.08836415,0.0001463,53.2174,340.0259,87.149,272.967,1.1019e-05,-1.13e-06,0.0,0 STARLINK-5249,1 54205U 22141BA  24161.20681896 -.00000113  00000-0  11019-4 0  9992,2 54205  53.2174 340.0259 0001463  87.1490 272.9670 15.08836415 89849,6917.891,95.438,540.768,538.744,0.0
54205.0,STARLINK-5249,PAYLOAD,2024-06-09 12:54:45,15.08825427,0.0001337,53.2188,338.5399,87.5463,272.5682,0.00012688,1.731e-05,0.0,0 STARLINK-5249,1 54205U 22141BA  24161.53802568  .00001731  00000-0  12688-3 0  9997,2 54205  53.2188 338.5399 0001337  87.5463 272.5682 15.08825427 89890,6917.925,95.438,540.715,538.865,0.0
54205.0,STARLINK-5249,PAYLOAD,2024-06-10 11:10:08,15.08838575,0.0001086,53.2138,334.3738,78.1646,281.9468,6.3626e-05,7.25e-06,0.0,0 STARLINK-5249,1 54205U 22141BA  24162.46537982  .00000725  00000-0  63626-4 0  9996,2 54205  53.2138 334.3738 0001086  78.1646 281.9468 15.08838575 90038,6917.885,95.438,540.501,538.998,0.0
